GLOBALSTAR M067         
1 32263U 07048A   25225.28049522 -.00000089  00000+0  64354-4 0  9996
2 32263  51.9701 228.8730 0001094 105.2613 268.6076 12.40675592816576
GLOBALSTAR M070         
1 32264U 07048B   25225.96128404 -.00000076  00000+0  15492-3 0  9993
2 32264  51.9766 312.5021 0000497 129.1926  42.3026 12.62320885820966
GLOBALSTAR M066         
1 32265U 07048C   25225.45379464 -.00000067  00000+0  23273-3 0  9998
2 32265  51.9568 221.3149 0004304  94.9203  71.5883 12.30266027822344
GLOBALSTAR M068         
1 32266U 07048D   25225.93432809 -.00000089  00000+0  84929-4 0  9995
2 32266  51.9880 126.2239 0000549 299.1268 143.1541 12.62826414824854
GLOBALSTAR M079         
1 37188U 10054A   25225.68453464 -.00000076  00000+0  15448-3 0  9991
2 37188  52.0061 324.7574 0000845  95.9589  56.4445 12.62265924683719
GLOBALSTAR M074         
1 37189U 10054B   25225.60137984 -.00000087  00000+0  95957-4 0  9996
2 37189  52.0040 324.3261 0000760 119.3482 253.4643 12.62266883684316
GLOBALSTAR M076         
1 37190U 10054C   25225.54866678 -.00000087  00000+0  90962-4 0  9991
2 37190  52.0051 324.6615 0000929 108.3077 265.4727 12.62264396684022
GLOBALSTAR M077         
1 37191U 10054D   25225.88591495 -.00000091  00000+0  70258-4 0  9992
2 37191  52.0069 280.5033 0000454 121.7083  49.4037 12.62322808684437
